{"type": "FeatureCollection", "features": [ {"type": "Feature", "properties": {"norad_id": 43010, "name": "FENGYUN 3D", "group": "weather", "lat": -43.781385950496066, "lon": 132.95093394285064, "alt_km": 832.6609265002498, "timestamp": "2025-12-21T05:44:51.218996+00:00", "meta": {"OBJECT_NAME": "FENGYUN 3D", "OBJECT_ID": "2017-072A", "EPOCH": "2025-12-20T21:55:41.235744", "MEAN_MOTION": 14.19685191, "ECCENTRICITY": 0.00013691, "INCLINATION": 98.9897, "RA_OF_ASC_NODE": 321.3461, "ARG_OF_PERICENTER": 157.9045, "MEAN_ANOMALY": 202.219, "EPHEMERIS_TYPE": 0, "CLASSIFICATION_TYPE": "U", "NORAD_CAT_ID": 43010, "ELEMENT_SET_NO": 999, "REV_AT_EPOCH": 41969, "BSTAR": -5.8411751e-05, "MEAN_MOTION_DOT": -1.69e-06, "MEAN_MOTION_DDOT": 0}, "tle": {"line1": "1 43010U 17072A   25354.91367171 -.00000169  00000+0 -58412-4 0  9990", "line2": "2 43010  98.9897 321.3461 0001369 157.9045 202.2190 14.19685191419690"}}, "geometry": {"type": "Point", "coordinates": [132.95093394285064, -43.781385950496066]}}, {"type": "Feature", "properties": {"norad_id": 43013, "name": "NOAA 20 (JPSS-1)", "group": "weather", "lat": 11.42260553592863, "lon": -70.34186924595477, "alt_km": 827.5602254423729, "timestamp": "2025-12-21T05:44:51.219008+00:00", "meta": {"OBJECT_NAME": "NOAA 20 (JPSS-1)", "OBJECT_ID": "2017-073A", "EPOCH": "2025-12-20T19:32:36.048768", "MEAN_MOTION": 14.19527677, "ECCENTRICITY": 0.00021242, "INCLINATION": 98.761, "RA_OF_ASC_NODE": 291.0231, "ARG_OF_PERICENTER": 75.6479, "MEAN_ANOMALY": 284.4933, "EPHEMERIS_TYPE": 0, "CLASSIFICATION_TYPE": "U", "NORAD_CAT_ID": 43013, "ELEMENT_SET_NO": 999, "REV_AT_EPOCH": 41916, "BSTAR": 4.2786048e-05, "MEAN_MOTION_DOT": 4.6e-07, "MEAN_MOTION_DDOT": 0}, "tle": {"line1": "1 43013U 17073A   25354.81430612  .00000046  00000+0  42786-4 0  9993", "line2": "2 43013  98.7610 291.0231 0002124  75.6479 284.4933 14.19527677419162"}}, "geometry": {"type": "Point", "coordinates": [-70.34186924595477, 11.42260553592863]}}, {"type": "Feature", "properties": {"norad_id": 43226, "name": "GOES 17", "group": "weather", "lat": 0.007395363840382528, "lon": 86.76764609675597, "alt_km": 35799.134857152894, "timestamp": "2025-12-21T05:44:51.219021+00:00", "meta": {"OBJECT_NAME": "GOES 17", "OBJECT_ID": "2018-022A", "EPOCH": "2025-12-20T21:21:50.287968", "MEAN_MOTION": 1.00270585, "ECCENTRICITY": 0.00030884, "INCLINATION": 0.4774, "RA_OF_ASC_NODE": 89.1403, "ARG_OF_PERICENTER": 191.7312, "MEAN_ANOMALY": 39.799, "EPHEMERIS_TYPE": 0, "CLASSIFICATION_TYPE": "U", "NORAD_CAT_ID": 43226, "ELEMENT_SET_NO": 999, "REV_AT_EPOCH": 2863, "BSTAR": 0, "MEAN_MOTION_DOT": -1.59e-06, "MEAN_MOTION_DDOT": 0}, "tle": {"line1": "1 43226U 18022A   25354.89016537 -.00000159  00000+0  00000+0 0  9992", "line2": "2 43226   0.4774  89.1403 0003088 191.7312  39.7990  1.00270585 28633"}}, "geometry": {"type": "Point", "coordinates": [86.76764609675597, 0.007395363840382528]}}, {"type": "Feature", "properties": {"norad_id": 43491, "name": "FENGYUN 2H", "group": "weather", "lat": 0.22624524037486135, "lon": -104.36952241087594, "alt_km": 35776.266528336506, "timestamp": "2025-12-21T05:44:51.219044+00:00", "meta": {"OBJECT_NAME": "FENGYUN 2H", "OBJECT_ID": "2018-050A", "EPOCH": "2025-12-20T22:10:00.673824", "MEAN_MOTION": 1.00271192, "ECCENTRICITY": 0.000238, "INCLINATION": 2.571, "RA_OF_ASC_NODE": 81.2441, "ARG_OF_PERICENTER": 165.7512, "MEAN_ANOMALY": 254.6089, "EPHEMERIS_TYPE": 0, "CLASSIFICATION_TYPE": "U", "NORAD_CAT_ID": 43491, "ELEMENT_SET_NO": 999, "REV_AT_EPOCH": 2765, "BSTAR": 0, "MEAN_MOTION_DOT": -1.08e-06, "MEAN_MOTION_DDOT": 0}, "tle": {"line1": "1 43491U 18050A   25354.92361891 -.00000108  00000+0  00000+0 0  9991", "line2": "2 43491   2.5710  81.2441 0002380 165.7512 254.6089  1.00271192 27655"}}, "geometry": {"type": "Point", "coordinates": [-104.36952241087594, 0.22624524037486135]}}, {"type": "Feature", "properties": {"norad_id": 43689, "name": "METOP-C", "group": "weather", "lat": -32.206560555966895, "lon": -132.65098145789008, "alt_km": 826.9713442076991, "timestamp": "2025-12-21T05:44:51.219056+00:00", "meta": {"OBJECT_NAME": "METOP-C", "OBJECT_ID": "2018-087A", "EPOCH": "2025-12-20T21:59:36.755232", "MEAN_MOTION": 14.2148725, "ECCENTRICITY": 8.516e-05, "INCLINATION": 98.6917, "RA_OF_ASC_NODE": 52.5603, "ARG_OF_PERICENTER": 25.1697, "MEAN_ANOMALY": 334.9522, "EPHEMERIS_TYPE": 0, "CLASSIFICATION_TYPE": "U", "NORAD_CAT_ID": 43689, "ELEMENT_SET_NO": 999, "REV_AT_EPOCH": 36950, "BSTAR": 6.3805207e-05, "MEAN_MOTION_DOT": 9.6e-07, "MEAN_MOTION_DDOT": 0}, "tle": {"line1": "1 43689U 18087A   25354.91639763  .00000096  00000+0  63805-4 0  9997", "line2": "2 43689  98.6917  52.5603 0000851  25.1697 334.9522 14.21487250369502"}}, "geometry": {"type": "Point", "coordinates": [-132.65098145789008, -32.206560555966895]}}, {"type": "Feature", "properties": {"norad_id": 43823, "name": "GEO-KOMPSAT-2A", "group": "weather", "lat": -0.02240523621157235, "lon": -55.465365497107356, "alt_km": 35787.972093951474, "timestamp": "2025-12-21T05:44:51.219069+00:00", "meta": {"OBJECT_NAME": "GEO-KOMPSAT-2A", "OBJECT_ID": "2018-100A", "EPOCH": "2025-12-20T22:23:59.335296", "MEAN_MOTION": 1.00271011, "ECCENTRICITY": 4.139e-05, "INCLINATION": 0.0521, "RA_OF_ASC_NODE": 137.1439, "ARG_OF_PERICENTER": 325.6061, "MEAN_ANOMALY": 91.278, "EPHEMERIS_TYPE": 0, "CLASSIFICATION_TYPE": "U", "NORAD_CAT_ID": 43823, "ELEMENT_SET_NO": 999, "REV_AT_EPOCH": 2584, "BSTAR": 0, "MEAN_MOTION_DOT": -3.2e-06, "MEAN_MOTION_DDOT": 0}, "tle": {"line1": "1 43823U 18100A   25354.93332564 -.00000320  00000+0  00000+0 0  9998", "line2": "2 43823   0.0521 137.1439 0000413 325.6061  91.2780  1.00271011 25848"}}, "geometry": {"type": "Point", "coordinates": [-55.465365497107356, -0.02240523621157235]}}, {"type": "Feature", "properties": {"norad_id": 44387, "name": "METEOR-M2 2", "group": "weather", "lat": 12.258416532666667, "lon": -26.878288125921745, "alt_km": 812.6216117257763, "timestamp": "2025-12-21T05:44:51.219080+00:00", "meta": {"OBJECT_NAME": "METEOR-M2 2", "OBJECT_ID": "2019-038A", "EPOCH": "2025-12-20T22:56:43.713600", "MEAN_MOTION": 14.24293828, "ECCENTRICITY": 0.00016338, "INCLINATION": 98.8972, "RA_OF_ASC_NODE": 334.7853, "ARG_OF_PERICENTER": 132.1339, "MEAN_ANOMALY": 227.9978, "EPHEMERIS_TYPE": 0, "CLASSIFICATION_TYPE": "U", "NORAD_CAT_ID": 44387, "ELEMENT_SET_NO": 999, "REV_AT_EPOCH": 33592, "BSTAR": -6.7668187e-05, "MEAN_MOTION_DOT": -2.02e-06, "MEAN_MOTION_DDOT": 0}, "tle": {"line1": "1 44387U 19038A   25354.95606150 -.00000202  00000+0 -67668-4 0  9990", "line2": "2 44387  98.8972 334.7853 0001633 132.1339 227.9978 14.24293828335928"}}, "geometry": {"type": "Point", "coordinates": [-26.878288125921745, 12.258416532666667]}}, {"type": "Feature", "properties": {"norad_id": 47719, "name": "ARKTIKA-M 1", "group": "weather", "lat": 62.28439157505784, "lon": 157.01152585050255, "alt_km": 38570.32776697524, "timestamp": "2025-12-21T05:44:51.219093+00:00", "meta": {"OBJECT_NAME": "ARKTIKA-M 1", "OBJECT_ID": "2021-016A", "EPOCH": "2025-12-20T01:15:32.338368", "MEAN_MOTION": 2.00630446, "ECCENTRICITY": 0.72079263, "INCLINATION": 63.1764, "RA_OF_ASC_NODE": 82.997, "ARG_OF_PERICENTER": 269.153, "MEAN_ANOMALY": 15.5565, "EPHEMERIS_TYPE": 0, "CLASSIFICATION_TYPE": "U", "NORAD_CAT_ID": 47719, "ELEMENT_SET_NO": 999, "REV_AT_EPOCH": 3519, "BSTAR": 0, "MEAN_MOTION_DOT": -1.14e-06, "MEAN_MOTION_DDOT": 0}, "tle": {"line1": "1 47719U 21016A   25354.05245762 -.00000114  00000+0  00000+0 0  9993", "line2": "2 47719  63.1764  82.9970 7207926 269.1530  15.5565  2.00630446 35191"}}, "geometry": {"type": "Point", "coordinates": [157.01152585050255, 62.28439157505784]}}, {"type": "Feature", "properties": {"norad_id": 49008, "name": "FENGYUN 3E", "group": "weather", "lat": -16.774413851882144, "lon": 172.99981499240366, "alt_km": 829.9994395113863, "timestamp": "2025-12-21T05:44:51.219105+00:00", "meta": {"OBJECT_NAME": "FENGYUN 3E", "OBJECT_ID": "2021-062A", "EPOCH": "2025-12-20T23:44:58.386624", "MEAN_MOTION": 14.19881387, "ECCENTRICITY": 8.06e-05, "INCLINATION": 98.7469, "RA_OF_ASC_NODE": 355.4128, "ARG_OF_PERICENTER": 207.1956, "MEAN_ANOMALY": 152.9178, "EPHEMERIS_TYPE": 0, "CLASSIFICATION_TYPE": "U", "NORAD_CAT_ID": 49008, "ELEMENT_SET_NO": 999, "REV_AT_EPOCH": 23129, "BSTAR": 8.0266136e-05, "MEAN_MOTION_DOT": 1.26e-06, "MEAN_MOTION_DDOT": 0}, "tle": {"line1": "1 49008U 21062A   25354.98956466  .00000126  00000+0  80266-4 0  9998", "line2": "2 49008  98.7469 355.4128 0000806 207.1956 152.9178 14.19881387231298"}}, "geometry": {"type": "Point", "coordinates": [172.99981499240366, -16.774413851882144]}}, {"type": "Feature", "properties": {"norad_id": 51850, "name": "GOES 18", "group": "weather", "lat": -0.004112973576418126, "lon": 39.28717320697019, "alt_km": 35784.683358628405, "timestamp": "2025-12-21T05:44:51.219121+00:00", "meta": {"OBJECT_NAME": "GOES 18", "OBJECT_ID": "2022-021A", "EPOCH": "2025-12-20T17:42:56.251584", "MEAN_MOTION": 1.00273162, "ECCENTRICITY": 4.934e-05, "INCLINATION": 0.0209, "RA_OF_ASC_NODE": 179.1955, "ARG_OF_PERICENTER": 158.0343, "MEAN_ANOMALY": 241.0852, "EPHEMERIS_TYPE": 0, "CLASSIFICATION_TYPE": "U", "NORAD_CAT_ID": 51850, "ELEMENT_SET_NO": 999, "REV_AT_EPOCH": 480, "BSTAR": 0, "MEAN_MOTION_DOT": 1.2e-06, "MEAN_MOTION_DDOT": 0}, "tle": {"line1": "1 51850U 22021A   25354.73815106  .00000120  00000+0  00000+0 0  9997", "line2": "2 51850   0.0209 179.1955 0000493 158.0343 241.0852  1.00273162  4805"}}, "geometry": {"type": "Point", "coordinates": [39.28717320697019, -0.004112973576418126]}}]}